{"type": "FeatureCollection", "features": [ {"type": "Feature", "properties": {"norad_id": 66568, "name": "STARLINK-35803", "group": "last-30-days", "lat": 27.911742217851796, "lon": -104.44436261336132, "alt_km": 411.55803920744256, "timestamp": "2025-12-14T14:39:28.131927+00:00", "meta": {"OBJECT_NAME": "STARLINK-35803", "OBJECT_ID": "2025-268M", "EPOCH": "2025-12-13T16:25:45.123456", "MEAN_MOTION": 15.50584485, "ECCENTRICITY": 0.00022584, "INCLINATION": 42.9998, "RA_OF_ASC_NODE": 115.6195, "ARG_OF_PERICENTER": 285.1954, "MEAN_ANOMALY": 74.8657, "EPHEMERIS_TYPE": 0, "CLASSIFICATION_TYPE": "U", "NORAD_CAT_ID": 66568, "ELEMENT_SET_NO": 999, "REV_AT_EPOCH": 477, "BSTAR": 0.0012493893, "MEAN_MOTION_DOT": 0.00073664, "MEAN_MOTION_DDOT": 0}, "tle": {"line1": "1 66568U 25268M   25347.68455004  .00073664  00000+0  12494-2 0  9994", "line2": "2 66568  42.9998 115.6195 0002258 285.1954  74.8657 15.50584485  4773"}}, "geometry": {"type": "Point", "coordinates": [-104.44436261336132, 27.911742217851796]}}, {"type": "Feature", "properties": {"norad_id": 66569, "name": "STARLINK-35835", "group": "last-30-days", "lat": 26.691418696301195, "lon": -102.4562441240779, "alt_km": 411.1249959630595, "timestamp": "2025-12-14T14:39:28.131937+00:00", "meta": {"OBJECT_NAME": "STARLINK-35835", "OBJECT_ID": "2025-268N", "EPOCH": "2025-12-13T17:58:01.207776", "MEAN_MOTION": 15.50616342, "ECCENTRICITY": 0.00019184, "INCLINATION": 42.9998, "RA_OF_ASC_NODE": 115.2408, "ARG_OF_PERICENTER": 286.3578, "MEAN_ANOMALY": 73.7072, "EPHEMERIS_TYPE": 0, "CLASSIFICATION_TYPE": "U", "NORAD_CAT_ID": 66569, "ELEMENT_SET_NO": 999, "REV_AT_EPOCH": 478, "BSTAR": 0.0023641011, "MEAN_MOTION_DOT": 0.00141065, "MEAN_MOTION_DDOT": 0}, "tle": {"line1": "1 66569U 25268N   25347.74862509  .00141065  00000+0  23641-2 0  9991", "line2": "2 66569  42.9998 115.2408 0001918 286.3578  73.7072 15.50616342  4782"}}, "geometry": {"type": "Point", "coordinates": [-102.4562441240779, 26.691418696301195]}}, {"type": "Feature", "properties": {"norad_id": 66570, "name": "STARLINK-35834", "group": "last-30-days", "lat": 25.581362995117455, "lon": -100.72224444872828, "alt_km": 411.24073665114065, "timestamp": "2025-12-14T14:39:28.131948+00:00", "meta": {"OBJECT_NAME": "STARLINK-35834", "OBJECT_ID": "2025-268P", "EPOCH": "2025-12-13T17:57:31.637376", "MEAN_MOTION": 15.50614796, "ECCENTRICITY": 0.00018898, "INCLINATION": 43, "RA_OF_ASC_NODE": 115.2376, "ARG_OF_PERICENTER": 284.6417, "MEAN_ANOMALY": 75.4234, "EPHEMERIS_TYPE": 0, "CLASSIFICATION_TYPE": "U", "NORAD_CAT_ID": 66570, "ELEMENT_SET_NO": 999, "REV_AT_EPOCH": 478, "BSTAR": 0.002405202, "MEAN_MOTION_DOT": 0.00143561, "MEAN_MOTION_DDOT": 0}, "tle": {"line1": "1 66570U 25268P   25347.74828284  .00143561  00000+0  24052-2 0  9995", "line2": "2 66570  43.0000 115.2376 0001889 284.6417  75.4234 15.50614796  4784"}}, "geometry": {"type": "Point", "coordinates": [-100.72224444872828, 25.581362995117455]}}, {"type": "Feature", "properties": {"norad_id": 66571, "name": "STARLINK-35836", "group": "last-30-days", "lat": 24.486288894549585, "lon": -99.07366542865637, "alt_km": 411.41463810216464, "timestamp": "2025-12-14T14:39:28.131961+00:00", "meta": {"OBJECT_NAME": "STARLINK-35836", "OBJECT_ID": "2025-268Q", "EPOCH": "2025-12-13T17:57:01.488960", "MEAN_MOTION": 15.50605807, "ECCENTRICITY": 0.00029172, "INCLINATION": 42.9993, "RA_OF_ASC_NODE": 115.2344, "ARG_OF_PERICENTER": 256.7028, "MEAN_ANOMALY": 103.3507, "EPHEMERIS_TYPE": 0, "CLASSIFICATION_TYPE": "U", "NORAD_CAT_ID": 66571, "ELEMENT_SET_NO": 999, "REV_AT_EPOCH": 478, "BSTAR": 0.00215814, "MEAN_MOTION_DOT": 0.00128497, "MEAN_MOTION_DDOT": 0}, "tle": {"line1": "1 66571U 25268Q   25347.74793390  .00128497  00000+0  21581-2 0  9990", "line2": "2 66571  42.9993 115.2344 0002917 256.7028 103.3507 15.50605807  4787"}}, "geometry": {"type": "Point", "coordinates": [-99.07366542865637, 24.486288894549585]}}, {"type": "Feature", "properties": {"norad_id": 66572, "name": "STARLINK-35870", "group": "last-30-days", "lat": 23.352021599498133, "lon": -97.4194973448177, "alt_km": 411.3291906529239, "timestamp": "2025-12-14T14:39:28.131971+00:00", "meta": {"OBJECT_NAME": "STARLINK-35870", "OBJECT_ID": "2025-268R", "EPOCH": "2025-12-13T17:56:32.515584", "MEAN_MOTION": 15.50601622, "ECCENTRICITY": 0.00012562, "INCLINATION": 42.9995, "RA_OF_ASC_NODE": 115.2336, "ARG_OF_PERICENTER": 283.973, "MEAN_ANOMALY": 76.099, "EPHEMERIS_TYPE": 0, "CLASSIFICATION_TYPE": "U", "NORAD_CAT_ID": 66572, "ELEMENT_SET_NO": 999, "REV_AT_EPOCH": 478, "BSTAR": 0.002096182, "MEAN_MOTION_DOT": 0.00124709, "MEAN_MOTION_DDOT": 0}, "tle": {"line1": "1 66572U 25268R   25347.74759856  .00124709  00000+0  20962-2 0  9994", "line2": "2 66572  42.9995 115.2336 0001256 283.9730  76.0990 15.50601622  4781"}}, "geometry": {"type": "Point", "coordinates": [-97.4194973448177, 23.352021599498133]}}, {"type": "Feature", "properties": {"norad_id": 66573, "name": "STARLINK-35650", "group": "last-30-days", "lat": 22.1010067909602, "lon": -95.65860279844608, "alt_km": 411.6471665313593, "timestamp": "2025-12-14T14:39:28.131981+00:00", "meta": {"OBJECT_NAME": "STARLINK-35650", "OBJECT_ID": "2025-268S", "EPOCH": "2025-12-13T17:56:02.647104", "MEAN_MOTION": 15.50624134, "ECCENTRICITY": 0.0001486, "INCLINATION": 42.9999, "RA_OF_ASC_NODE": 115.2295, "ARG_OF_PERICENTER": 306.7701, "MEAN_ANOMALY": 53.3023, "EPHEMERIS_TYPE": 0, "CLASSIFICATION_TYPE": "U", "NORAD_CAT_ID": 66573, "ELEMENT_SET_NO": 999, "REV_AT_EPOCH": 478, "BSTAR": 0.0023857445, "MEAN_MOTION_DOT": 0.00142422, "MEAN_MOTION_DDOT": 0}, "tle": {"line1": "1 66573U 25268S   25347.74725286  .00142422  00000+0  23857-2 0  9993", "line2": "2 66573  42.9999 115.2295 0001486 306.7701  53.3023 15.50624134  4785"}}, "geometry": {"type": "Point", "coordinates": [-95.65860279844608, 22.1010067909602]}}, {"type": "Feature", "properties": {"norad_id": 66574, "name": "STARLINK-35812", "group": "last-30-days", "lat": 20.950612605821696, "lon": -94.08858097405961, "alt_km": 411.96540637197995, "timestamp": "2025-12-14T14:39:28.131994+00:00", "meta": {"OBJECT_NAME": "STARLINK-35812", "OBJECT_ID": "2025-268T", "EPOCH": "2025-12-13T17:55:33.072384", "MEAN_MOTION": 15.50614671, "ECCENTRICITY": 0.00016881, "INCLINATION": 42.9998, "RA_OF_ASC_NODE": 115.2267, "ARG_OF_PERICENTER": 299.4841, "MEAN_ANOMALY": 60.585, "EPHEMERIS_TYPE": 0, "CLASSIFICATION_TYPE": "U", "NORAD_CAT_ID": 66574, "ELEMENT_SET_NO": 999, "REV_AT_EPOCH": 478, "BSTAR": 0.0022841888, "MEAN_MOTION_DOT": 0.0013619, "MEAN_MOTION_DDOT": 0}, "tle": {"line1": "1 66574U 25268T   25347.74691056  .00136190  00000+0  22842-2 0  9999", "line2": "2 66574  42.9998 115.2267 0001688 299.4841  60.5850 15.50614671  4784"}}, "geometry": {"type": "Point", "coordinates": [-94.08858097405961, 20.950612605821696]}}, {"type": "Feature", "properties": {"norad_id": 66575, "name": "STARLINK-35810", "group": "last-30-days", "lat": 19.780605109297934, "lon": -92.53682536830422, "alt_km": 411.76505666211506, "timestamp": "2025-12-14T14:39:28.132010+00:00", "meta": {"OBJECT_NAME": "STARLINK-35810", "OBJECT_ID": "2025-268U", "EPOCH": "2025-12-13T17:55:03.464832", "MEAN_MOTION": 15.50606032, "ECCENTRICITY": 0.0001105, "INCLINATION": 42.9995, "RA_OF_ASC_NODE": 115.2229, "ARG_OF_PERICENTER": 286.4872, "MEAN_ANOMALY": 73.5867, "EPHEMERIS_TYPE": 0, "CLASSIFICATION_TYPE": "U", "NORAD_CAT_ID": 66575, "ELEMENT_SET_NO": 999, "REV_AT_EPOCH": 478, "BSTAR": 0.0021348191, "MEAN_MOTION_DOT": 0.00127073, "MEAN_MOTION_DDOT": 0}, "tle": {"line1": "1 66575U 25268U   25347.74656788  .00127073  00000+0  21348-2 0  9993", "line2": "2 66575  42.9995 115.2229 0001105 286.4872  73.5867 15.50606032  4788"}}, "geometry": {"type": "Point", "coordinates": [-92.53682536830422, 19.780605109297934]}}, {"type": "Feature", "properties": {"norad_id": 66576, "name": "STARLINK-35814", "group": "last-30-days", "lat": 18.56609789386743, "lon": -90.96696372415916, "alt_km": 411.8491892432339, "timestamp": "2025-12-14T14:39:28.132020+00:00", "meta": {"OBJECT_NAME": "STARLINK-35814", "OBJECT_ID": "2025-268V", "EPOCH": "2025-12-13T17:54:33.819264", "MEAN_MOTION": 15.50605603, "ECCENTRICITY": 0.00013372, "INCLINATION": 42.9993, "RA_OF_ASC_NODE": 115.2201, "ARG_OF_PERICENTER": 269.2713, "MEAN_ANOMALY": 90.7994, "EPHEMERIS_TYPE": 0, "CLASSIFICATION_TYPE": "U", "NORAD_CAT_ID": 66576, "ELEMENT_SET_NO": 999, "REV_AT_EPOCH": 478, "BSTAR": 0.0021986442, "MEAN_MOTION_DOT": 0.00130946, "MEAN_MOTION_DDOT": 0}, "tle": {"line1": "1 66576U 25268V   25347.74622476  .00130946  00000+0  21986-2 0  9992", "line2": "2 66576  42.9993 115.2201 0001337 269.2713  90.7994 15.50605603  4782"}}, "geometry": {"type": "Point", "coordinates": [-90.96696372415916, 18.56609789386743]}}, {"type": "Feature", "properties": {"norad_id": 66577, "name": "STARLINK-35815", "group": "last-30-days", "lat": 17.32158688102751, "lon": -89.39770712985016, "alt_km": 412.40029505681014, "timestamp": "2025-12-14T14:39:28.132030+00:00", "meta": {"OBJECT_NAME": "STARLINK-35815", "OBJECT_ID": "2025-268W", "EPOCH": "2025-12-13T17:54:04.125312", "MEAN_MOTION": 15.50612342, "ECCENTRICITY": 0.00014621, "INCLINATION": 42.9992, "RA_OF_ASC_NODE": 115.2176, "ARG_OF_PERICENTER": 300.4475, "MEAN_ANOMALY": 59.6241, "EPHEMERIS_TYPE": 0, "CLASSIFICATION_TYPE": "U", "NORAD_CAT_ID": 66577, "ELEMENT_SET_NO": 999, "REV_AT_EPOCH": 478, "BSTAR": 0.0021834722, "MEAN_MOTION_DOT": 0.00130056, "MEAN_MOTION_DDOT": 0}, "tle": {"line1": "1 66577U 25268W   25347.74588108  .00130056  00000+0  21835-2 0  9991", "line2": "2 66577  42.9992 115.2176 0001462 300.4475  59.6241 15.50612342  4782"}}, "geometry": {"type": "Point", "coordinates": [-89.39770712985016, 17.32158688102751]}}]}